{"type": "FeatureCollection", "features": [ {"type": "Feature", "properties": {"norad_id": 35829, "name": "COSMOS 2251 DEB", "group": "cosmos-2251-debris", "lat": -56.12769910222079, "lon": 79.9296217492844, "alt_km": 650.9389839497953, "timestamp": "2025-12-09T11:33:55.197854+00:00", "meta": {"OBJECT_NAME": "COSMOS 2251 DEB", "OBJECT_ID": "1993-036ATB", "EPOCH": "2025-12-08T14:41:25.732032", "MEAN_MOTION": 14.76103447, "ECCENTRICITY": 0.0006283, "INCLINATION": 74.0249, "RA_OF_ASC_NODE": 106.8945, "ARG_OF_PERICENTER": 174.4564, "MEAN_ANOMALY": 185.6681, "EPHEMERIS_TYPE": 0, "CLASSIFICATION_TYPE": "U", "NORAD_CAT_ID": 35829, "ELEMENT_SET_NO": 999, "REV_AT_EPOCH": 87714, "BSTAR": 0.0032694, "MEAN_MOTION_DOT": 0.0002262, "MEAN_MOTION_DDOT": 0}, "tle": {"line1": "1 35829U 93036ATB 25342.61210338  .00022620  00000+0  32694-2 0  9995", "line2": "2 35829  74.0249 106.8945 0006283 174.4564 185.6681 14.76103447877147"}}, "geometry": {"type": "Point", "coordinates": [79.9296217492844, -56.12769910222079]}}, {"type": "Feature", "properties": {"norad_id": 35830, "name": "COSMOS 2251 DEB", "group": "cosmos-2251-debris", "lat": 44.013508428708064, "lon": 76.12102551978253, "alt_km": 833.6540644474389, "timestamp": "2025-12-09T11:33:55.197863+00:00", "meta": {"OBJECT_NAME": "COSMOS 2251 DEB", "OBJECT_ID": "1993-036ATC", "EPOCH": "2025-12-06T12:06:38.215008", "MEAN_MOTION": 14.23927917, "ECCENTRICITY": 0.01224789, "INCLINATION": 73.8624, "RA_OF_ASC_NODE": 277.7805, "ARG_OF_PERICENTER": 247.2482, "MEAN_ANOMALY": 111.5683, "EPHEMERIS_TYPE": 0, "CLASSIFICATION_TYPE": "U", "NORAD_CAT_ID": 35830, "ELEMENT_SET_NO": 999, "REV_AT_EPOCH": 61175, "BSTAR": 0.0019622096, "MEAN_MOTION_DOT": 4.837e-05, "MEAN_MOTION_DDOT": 0}, "tle": {"line1": "1 35830U 93036ATC 25340.50460897  .00004837  00000+0  19622-2 0  9996", "line2": "2 35830  73.8624 277.7805 0122478 247.2482 111.5683 14.23927917611750"}}, "geometry": {"type": "Point", "coordinates": [76.12102551978253, 44.013508428708064]}}, {"type": "Feature", "properties": {"norad_id": 35834, "name": "COSMOS 2251 DEB", "group": "cosmos-2251-debris", "lat": 69.9768987645514, "lon": 78.06670661763403, "alt_km": 764.1495580832261, "timestamp": "2025-12-09T11:33:55.197873+00:00", "meta": {"OBJECT_NAME": "COSMOS 2251 DEB", "OBJECT_ID": "1993-036ATG", "EPOCH": "2025-12-08T21:38:02.541120", "MEAN_MOTION": 14.129731, "ECCENTRICITY": 0.0109189, "INCLINATION": 73.9309, "RA_OF_ASC_NODE": 311.3711, "ARG_OF_PERICENTER": 112.4606, "MEAN_ANOMALY": 278.2822, "EPHEMERIS_TYPE": 0, "CLASSIFICATION_TYPE": "U", "NORAD_CAT_ID": 35834, "ELEMENT_SET_NO": 999, "REV_AT_EPOCH": 66209, "BSTAR": 0.00032999, "MEAN_MOTION_DOT": 6.26e-06, "MEAN_MOTION_DDOT": 0}, "tle": {"line1": "1 35834U 93036ATG 25342.90141830  .00000626  00000+0  32999-3 0  9994", "line2": "2 35834  73.9309 311.3711 0109189 112.4606 278.2822 14.12973100662093"}}, "geometry": {"type": "Point", "coordinates": [78.06670661763403, 69.9768987645514]}}, {"type": "Feature", "properties": {"norad_id": 35835, "name": "COSMOS 2251 DEB", "group": "cosmos-2251-debris", "lat": 28.178632790468814, "lon": -77.28095806342493, "alt_km": 761.1284118140802, "timestamp": "2025-12-09T11:33:55.197883+00:00", "meta": {"OBJECT_NAME": "COSMOS 2251 DEB", "OBJECT_ID": "1993-036ATH", "EPOCH": "2025-12-08T02:26:31.163712", "MEAN_MOTION": 13.82845446, "ECCENTRICITY": 0.0289856, "INCLINATION": 74.0637, "RA_OF_ASC_NODE": 276.2339, "ARG_OF_PERICENTER": 58.9026, "MEAN_ANOMALY": 304.0195, "EPHEMERIS_TYPE": 0, "CLASSIFICATION_TYPE": "U", "NORAD_CAT_ID": 35835, "ELEMENT_SET_NO": 999, "REV_AT_EPOCH": 61635, "BSTAR": 0.0020246404, "MEAN_MOTION_DOT": 3.026e-05, "MEAN_MOTION_DDOT": 0}, "tle": {"line1": "1 35835U 93036ATH 25342.10174958  .00003026  00000+0  20246-2 0  9992", "line2": "2 35835  74.0637 276.2339 0289856  58.9026 304.0195 13.82845446616351"}}, "geometry": {"type": "Point", "coordinates": [-77.28095806342493, 28.178632790468814]}}, {"type": "Feature", "properties": {"norad_id": 35836, "name": "COSMOS 2251 DEB", "group": "cosmos-2251-debris", "lat": -58.515284297477024, "lon": 151.38600455250852, "alt_km": 656.2903337376456, "timestamp": "2025-12-09T11:33:55.197893+00:00", "meta": {"OBJECT_NAME": "COSMOS 2251 DEB", "OBJECT_ID": "1993-036ATJ", "EPOCH": "2025-12-08T21:09:26.726112", "MEAN_MOTION": 14.70831317, "ECCENTRICITY": 0.0024584, "INCLINATION": 74.031, "RA_OF_ASC_NODE": 180.4275, "ARG_OF_PERICENTER": 239.4807, "MEAN_ANOMALY": 120.3938, "EPHEMERIS_TYPE": 0, "CLASSIFICATION_TYPE": "U", "NORAD_CAT_ID": 35836, "ELEMENT_SET_NO": 999, "REV_AT_EPOCH": 63463, "BSTAR": 0.0019954, "MEAN_MOTION_DOT": 0.00012243, "MEAN_MOTION_DDOT": 0}, "tle": {"line1": "1 35836U 93036ATJ 25342.88155933  .00012243  00000+0  19954-2 0  9995", "line2": "2 35836  74.0310 180.4275 0024584 239.4807 120.3938 14.70831317634638"}}, "geometry": {"type": "Point", "coordinates": [151.38600455250852, -58.515284297477024]}}, {"type": "Feature", "properties": {"norad_id": 35837, "name": "COSMOS 2251 DEB", "group": "cosmos-2251-debris", "lat": 34.52265357717433, "lon": -135.3592261997006, "alt_km": 1051.524221519595, "timestamp": "2025-12-09T11:33:55.197903+00:00", "meta": {"OBJECT_NAME": "COSMOS 2251 DEB", "OBJECT_ID": "1993-036ATK", "EPOCH": "2025-12-08T09:49:11.073216", "MEAN_MOTION": 13.63427445, "ECCENTRICITY": 0.04220574, "INCLINATION": 73.7213, "RA_OF_ASC_NODE": 214.8301, "ARG_OF_PERICENTER": 136.2999, "MEAN_ANOMALY": 41.3632, "EPHEMERIS_TYPE": 0, "CLASSIFICATION_TYPE": "U", "NORAD_CAT_ID": 35837, "ELEMENT_SET_NO": 999, "REV_AT_EPOCH": 57917, "BSTAR": 0.0028682551, "MEAN_MOTION_DOT": 4.116e-05, "MEAN_MOTION_DDOT": 0}, "tle": {"line1": "1 35837U 93036ATK 25342.40915594  .00004116  00000+0  28683-2 0  9990", "line2": "2 35837  73.7213 214.8301 0422057 136.2999  41.3632 13.63427445579176"}}, "geometry": {"type": "Point", "coordinates": [-135.3592261997006, 34.52265357717433]}}, {"type": "Feature", "properties": {"norad_id": 35839, "name": "COSMOS 2251 DEB", "group": "cosmos-2251-debris", "lat": 22.44422359432806, "lon": -22.689011250675243, "alt_km": 416.7328392946247, "timestamp": "2025-12-09T11:33:55.197913+00:00", "meta": {"OBJECT_NAME": "COSMOS 2251 DEB", "OBJECT_ID": "1993-036ATM", "EPOCH": "2025-12-08T23:03:59.947200", "MEAN_MOTION": 15.49150039, "ECCENTRICITY": 0.0001318, "INCLINATION": 74.2066, "RA_OF_ASC_NODE": 331.7255, "ARG_OF_PERICENTER": 23.9836, "MEAN_ANOMALY": 336.1438, "EPHEMERIS_TYPE": 0, "CLASSIFICATION_TYPE": "U", "NORAD_CAT_ID": 35839, "ELEMENT_SET_NO": 999, "REV_AT_EPOCH": 88509, "BSTAR": 0.0058901, "MEAN_MOTION_DOT": 0.00334695, "MEAN_MOTION_DDOT": 0}, "tle": {"line1": "1 35839U 93036ATM 25342.96111050  .00334695  00000+0  58901-2 0  9992", "line2": "2 35839  74.2066 331.7255 0001318  23.9836 336.1438 15.49150039885090"}}, "geometry": {"type": "Point", "coordinates": [-22.689011250675243, 22.44422359432806]}}, {"type": "Feature", "properties": {"norad_id": 35840, "name": "COSMOS 2251 DEB", "group": "cosmos-2251-debris", "lat": 50.16709537982832, "lon": -175.56676380497757, "alt_km": 680.3475720585002, "timestamp": "2025-12-09T11:33:55.197924+00:00", "meta": {"OBJECT_NAME": "COSMOS 2251 DEB", "OBJECT_ID": "1993-036ATN", "EPOCH": "2025-12-08T18:37:28.284384", "MEAN_MOTION": 14.37765404, "ECCENTRICITY": 0.01163254, "INCLINATION": 73.9303, "RA_OF_ASC_NODE": 165.5248, "ARG_OF_PERICENTER": 68.9805, "MEAN_ANOMALY": 292.3744, "EPHEMERIS_TYPE": 0, "CLASSIFICATION_TYPE": "U", "NORAD_CAT_ID": 35840, "ELEMENT_SET_NO": 999, "REV_AT_EPOCH": 85234, "BSTAR": 0.0024200491, "MEAN_MOTION_DOT": 7.86e-05, "MEAN_MOTION_DDOT": 0}, "tle": {"line1": "1 35840U 93036ATN 25342.77602181  .00007860  00000+0  24200-2 0  9999", "line2": "2 35840  73.9303 165.5248 0116325  68.9805 292.3744 14.37765404852346"}}, "geometry": {"type": "Point", "coordinates": [-175.56676380497757, 50.16709537982832]}}, {"type": "Feature", "properties": {"norad_id": 35883, "name": "COSMOS 2251 DEB", "group": "cosmos-2251-debris", "lat": -73.05395663128573, "lon": -33.767837196109426, "alt_km": 698.7988171163115, "timestamp": "2025-12-09T11:33:55.197933+00:00", "meta": {"OBJECT_NAME": "COSMOS 2251 DEB", "OBJECT_ID": "1993-036ATW", "EPOCH": "2025-12-08T12:53:27.979296", "MEAN_MOTION": 14.5058807, "ECCENTRICITY": 0.00839123, "INCLINATION": 74.0248, "RA_OF_ASC_NODE": 77.932, "ARG_OF_PERICENTER": 208.211, "MEAN_ANOMALY": 163.6192, "EPHEMERIS_TYPE": 0, "CLASSIFICATION_TYPE": "U", "NORAD_CAT_ID": 35883, "ELEMENT_SET_NO": 999, "REV_AT_EPOCH": 62325, "BSTAR": 0.00065719246, "MEAN_MOTION_DOT": 2.667e-05, "MEAN_MOTION_DDOT": 0}, "tle": {"line1": "1 35883U 93036ATW 25342.53712939  .00002667  00000+0  65719-3 0  9994", "line2": "2 35883  74.0248  77.9320 0083912 208.2110 163.6192 14.50588070623253"}}, "geometry": {"type": "Point", "coordinates": [-33.767837196109426, -73.05395663128573]}}, {"type": "Feature", "properties": {"norad_id": 35884, "name": "COSMOS 2251 DEB", "group": "cosmos-2251-debris", "lat": -72.45642148446588, "lon": -83.34526038601737, "alt_km": 879.0536297402796, "timestamp": "2025-12-09T11:33:55.197943+00:00", "meta": {"OBJECT_NAME": "COSMOS 2251 DEB", "OBJECT_ID": "1993-036ATX", "EPOCH": "2025-12-06T18:16:42.391200", "MEAN_MOTION": 14.25605565, "ECCENTRICITY": 0.01089766, "INCLINATION": 73.9907, "RA_OF_ASC_NODE": 346.8314, "ARG_OF_PERICENTER": 135.364, "MEAN_ANOMALY": 225.6347, "EPHEMERIS_TYPE": 0, "CLASSIFICATION_TYPE": "U", "NORAD_CAT_ID": 35884, "ELEMENT_SET_NO": 999, "REV_AT_EPOCH": 22272, "BSTAR": 0.0019229553, "MEAN_MOTION_DOT": 4.824e-05, "MEAN_MOTION_DDOT": 0}, "tle": {"line1": "1 35884U 93036ATX 25340.76160175  .00004824  00000+0  19230-2 0  9990", "line2": "2 35884  73.9907 346.8314 0108976 135.3640 225.6347 14.25605565222720"}}, "geometry": {"type": "Point", "coordinates": [-83.34526038601737, -72.45642148446588]}}]}